{
    "links": {
        "self": "http://www.neowsapp.com/rest/v1/neo/3841973?api_key=iIulBulltgU6a56xZRHN4H3l9WmuAYTsLGpBGhQ2"
    },
    "id": "3841973",
    "neo_reference_id": "3841973",
    "name": "(2019 JH8)",
    "designation": "2019 JH8",
    "nasa_jpl_url": "http://ssd.jpl.nasa.gov/sbdb.cgi?sstr=3841973",
    "absolute_magnitude_h": 26.1,
    "estimated_diameter": {
        "kilometers": {
            "estimated_diameter_min": 0.0160160338,
            "estimated_diameter_max": 0.0358129403
        },
        "meters": {
            "estimated_diameter_min": 16.0160337979,
            "estimated_diameter_max": 35.8129403019
        },
        "miles": {
            "estimated_diameter_min": 0.0099518989,
            "estimated_diameter_max": 0.0222531225
        },
        "feet": {
            "estimated_diameter_min": 52.5460443254,
            "estimated_diameter_max": 117.4965270602
        }
    },
    "is_potentially_hazardous_asteroid": false,
    "close_approach_data": [
        {
            "close_approach_date": "2016-04-10",
            "close_approach_date_full": "2016-Apr-10 03:42",
            "epoch_date_close_approach": 1460259720000,
            "relative_velocity": {
                "kilometers_per_second": "20.0545751964",
                "kilometers_per_hour": "72196.4707071192",
                "miles_per_hour": "44860.0792568764"
            },
            "miss_distance": {
                "astronomical": "0.4431954645",
                "lunar": "172.4030356905",
                "kilometers": "66301097.482860615",
                "miles": "41197591.618141887"
            },
            "orbiting_body": "Earth"
        },
        {
            "close_approach_date": "2019-05-28",
            "close_approach_date_full": "2019-May-28 15:39",
            "epoch_date_close_approach": 1559057940000,
            "relative_velocity": {
                "kilometers_per_second": "6.8570921152",
                "kilometers_per_hour": "24685.5316147776",
                "miles_per_hour": "15338.6293525267"
            },
            "miss_distance": {
                "astronomical": "0.0232097954",
                "lunar": "9.0286104106",
                "kilometers": "3472135.954975798",
                "miles": "2157485.2385020924"
            },
            "orbiting_body": "Earth"
        },
        {
            "close_approach_date": "2022-07-26",
            "close_approach_date_full": "2022-Jul-26 21:08",
            "epoch_date_close_approach": 1658869680000,
            "relative_velocity": {
                "kilometers_per_second": "16.5183216379",
                "kilometers_per_hour": "59465.9578964677",
                "miles_per_hour": "36949.8336718357"
            },
            "miss_distance": {
                "astronomical": "0.3239807652",
                "lunar": "126.0285176628",
                "kilometers": "48466832.394890124",
                "miles": "30115893.1576627512"
            },
            "orbiting_body": "Earth"
        }
    ],
    "orbital_data": {
        "orbit_id": "3",
        "orbit_determination_date": "2019-06-05 06:25:21",
        "first_observation_date": "2019-05-08",
        "last_observation_date": "2019-06-04",
        "data_arc_in_days": 27,
        "observations_used": 26,
        "orbit_uncertainty": "7",
        "minimum_orbit_intersection": ".0186341",
        "jupiter_tisserand_invariant": "3.561",
        "epoch_osculation": "2459000.5",
        "eccentricity": ".5106290678595279",
        "semi_major_axis": "2.110517218756594",
        "inclination": ".378320048685827",
        "ascending_node_longitude": "112.6981852752258",
        "orbital_period": "1119.906528683176",
        "perihelion_distance": "1.032825778641431",
        "perihelion_argument": "141.42232847458",
        "aphelion_distance": "3.188208658871758",
        "perihelion_time": "2458638.172731006471",
        "mean_anomaly": "116.4720568162448",
        "mean_motion": ".3214553989816455",
        "equinox": "J2000",
        "orbit_class": {
            "orbit_class_type": "AMO",
            "orbit_class_description": "Near-Earth asteroid orbits similar to that of 1221 Amor",
            "orbit_class_range": "1.017 AU < q (perihelion) < 1.3 AU"
        }
    },
    "is_sentry_object": false
}